{
  "type": "FeatureCollection",
  "features": [
    {
      "type": "Feature",
      "properties": {
        "norad_id": 41581,
        "name": "INTELSAT 31 (IS-31)",
        "group": "intelsat",
        "lat": 0.01536580967305227,
        "lon": 81.96107347636668,
        "alt_km": 35792.82462060926,
        "timestamp": "2025-12-03T06:58:42.909187+00:00",
        "meta_object_name": "INTELSAT 31 (IS-31)",
        "meta_object_id": "2016-035A",
        "meta_epoch": "2025-12-02T09:32:38.891904",
        "meta_mean_motion": 1.00269687,
        "meta_eccentricity": 0.00019053,
        "meta_inclination": 0.0144,
        "meta_ra_of_asc_node": 272.373,
        "meta_arg_of_pericenter": 308.7593,
        "meta_mean_anomaly": 258.4788,
        "meta_ephemeris_type": 0,
        "meta_classification_type": "U",
        "meta_norad_cat_id": 41581,
        "meta_element_set_no": 999,
        "meta_rev_at_epoch": 3471,
        "meta_bstar": 0,
        "meta_mean_motion_dot": -1.3e-06,
        "meta_mean_motion_ddot": 0,
        "tle_line1": "1 41581U 16035A   25336.39767236 -.00000130  00000+0  00000+0 0  9999",
        "tle_line2": "2 41581   0.0144 272.3730 0001905 308.7593 258.4788  1.00269687 34710"
      },
      "geometry": {
        "type": "Point",
        "coordinates": [
          81.96107347636668,
          0.01536580967305227
        ]
      }
    },
    {
      "type": "Feature",
      "properties": {
        "norad_id": 41747,
        "name": "INTELSAT 36 (IS-36)",
        "group": "intelsat",
        "lat": -0.032734291838039144,
        "lon": -114.48209926892063,
        "alt_km": 35786.12355660914,
        "timestamp": "2025-12-03T06:58:42.909199+00:00",
        "meta_object_name": "INTELSAT 36 (IS-36)",
        "meta_object_id": "2016-053A",
        "meta_epoch": "2025-12-02T02:07:30.067680",
        "meta_mean_motion": 1.00267364,
        "meta_eccentricity": 0.00011383,
        "meta_inclination": 0.0112,
        "meta_ra_of_asc_node": 345.1763,
        "meta_arg_of_pericenter": 336.3829,
        "meta_mean_anomaly": 210.0274,
        "meta_ephemeris_type": 0,
        "meta_classification_type": "U",
        "meta_norad_cat_id": 41747,
        "meta_element_set_no": 999,
        "meta_rev_at_epoch": 3397,
        "meta_bstar": 0,
        "meta_mean_motion_dot": -3e-08,
        "meta_mean_motion_ddot": 0,
        "tle_line1": "1 41747U 16053A   25336.08854245 -.00000003  00000+0  00000+0 0  9995",
        "tle_line2": "2 41747   0.0112 345.1763 0001138 336.3829 210.0274  1.00267364 33972"
      },
      "geometry": {
        "type": "Point",
        "coordinates": [
          -114.48209926892063,
          -0.032734291838039144
        ]
      }
    },
    {
      "type": "Feature",
      "properties": {
        "norad_id": 41945,
        "name": "INTELSAT 32E (IS-32E)",
        "group": "intelsat",
        "lat": 0.014197532051015467,
        "lon": 133.86614323676307,
        "alt_km": 35787.124117890584,
        "timestamp": "2025-12-03T06:58:42.909210+00:00",
        "meta_object_name": "INTELSAT 32E (IS-32E)",
        "meta_object_id": "2017-007B",
        "meta_epoch": "2025-12-02T16:59:55.442112",
        "meta_mean_motion": 1.00269875,
        "meta_eccentricity": 1.35e-05,
        "meta_inclination": 0.0265,
        "meta_ra_of_asc_node": 63.3422,
        "meta_arg_of_pericenter": 288.3061,
        "meta_mean_anomaly": 291.9751,
        "meta_ephemeris_type": 0,
        "meta_classification_type": "U",
        "meta_norad_cat_id": 41945,
        "meta_element_set_no": 999,
        "meta_rev_at_epoch": 3225,
        "meta_bstar": 0,
        "meta_mean_motion_dot": -2.49e-06,
        "meta_mean_motion_ddot": 0,
        "tle_line1": "1 41945U 17007B   25336.70828058 -.00000249  00000+0  00000+0 0  9999",
        "tle_line2": "2 41945   0.0265  63.3422 0000135 288.3061 291.9751  1.00269875 32259"
      },
      "geometry": {
        "type": "Point",
        "coordinates": [
          133.86614323676307,
          0.014197532051015467
        ]
      }
    },
    {
      "type": "Feature",
      "properties": {
        "norad_id": 42818,
        "name": "INTELSAT 35E (IS-35E)",
        "group": "intelsat",
        "lat": -0.00387253644000203,
        "lon": 142.53266264783312,
        "alt_km": 35789.76116843801,
        "timestamp": "2025-12-03T06:58:42.909221+00:00",
        "meta_object_name": "INTELSAT 35E (IS-35E)",
        "meta_object_id": "2017-041A",
        "meta_epoch": "2025-12-02T17:02:40.178400",
        "meta_mean_motion": 1.00271129,
        "meta_eccentricity": 0.00023,
        "meta_inclination": 0.0181,
        "meta_ra_of_asc_node": 318.62,
        "meta_arg_of_pericenter": 294.6528,
        "meta_mean_anomaly": 39.7286,
        "meta_ephemeris_type": 0,
        "meta_classification_type": "U",
        "meta_norad_cat_id": 42818,
        "meta_element_set_no": 999,
        "meta_rev_at_epoch": 3084,
        "meta_bstar": 0,
        "meta_mean_motion_dot": -2.18e-06,
        "meta_mean_motion_ddot": 0,
        "tle_line1": "1 42818U 17041A   25336.71018725 -.00000218  00000+0  00000+0 0  9996",
        "tle_line2": "2 42818   0.0181 318.6200 0002300 294.6528  39.7286  1.00271129 30849"
      },
      "geometry": {
        "type": "Point",
        "coordinates": [
          142.53266264783312,
          -0.00387253644000203
        ]
      }
    },
    {
      "type": "Feature",
      "properties": {
        "norad_id": 42950,
        "name": "INTELSAT 37E (IS-37E)",
        "group": "intelsat",
        "lat": -0.01903555432394411,
        "lon": 159.00325488246125,
        "alt_km": 35785.517868841256,
        "timestamp": "2025-12-03T06:58:42.909233+00:00",
        "meta_object_name": "INTELSAT 37E (IS-37E)",
        "meta_object_id": "2017-059A",
        "meta_epoch": "2025-12-02T17:07:24.722976",
        "meta_mean_motion": 1.00270917,
        "meta_eccentricity": 0.0003411,
        "meta_inclination": 0.0149,
        "meta_ra_of_asc_node": 306.4288,
        "meta_arg_of_pericenter": 299.2671,
        "meta_mean_anomaly": 64.9797,
        "meta_ephemeris_type": 0,
        "meta_classification_type": "U",
        "meta_norad_cat_id": 42950,
        "meta_element_set_no": 999,
        "meta_rev_at_epoch": 3009,
        "meta_bstar": 0,
        "meta_mean_motion_dot": -1.2e-06,
        "meta_mean_motion_ddot": 0,
        "tle_line1": "1 42950U 17059A   25336.71348059 -.00000120  00000+0  00000+0 0  9990",
        "tle_line2": "2 42950   0.0149 306.4288 0003411 299.2671  64.9797  1.00270917 30093"
      },
      "geometry": {
        "type": "Point",
        "coordinates": [
          159.00325488246125,
          -0.01903555432394411
        ]
      }
    },
    {
      "type": "Feature",
      "properties": {
        "norad_id": 43632,
        "name": "AZERSPACE 2 (IS-38)",
        "group": "intelsat",
        "lat": -0.01868333054259747,
        "lon": -137.86293469807347,
        "alt_km": 35780.07263185516,
        "timestamp": "2025-12-03T06:58:42.909245+00:00",
        "meta_object_name": "AZERSPACE 2 (IS-38)",
        "meta_object_id": "2018-074A",
        "meta_epoch": "2025-12-02T17:25:23.001024",
        "meta_mean_motion": 1.00271237,
        "meta_eccentricity": 0.0001689,
        "meta_inclination": 0.0021,
        "meta_ra_of_asc_node": 0.4539,
        "meta_arg_of_pericenter": 253.3292,
        "meta_mean_anomaly": 124.5013,
        "meta_ephemeris_type": 0,
        "meta_classification_type": "U",
        "meta_norad_cat_id": 43632,
        "meta_element_set_no": 999,
        "meta_rev_at_epoch": 2647,
        "meta_bstar": 0,
        "meta_mean_motion_dot": 1.56e-06,
        "meta_mean_motion_ddot": 0,
        "tle_line1": "1 43632U 18074A   25336.72596066  .00000156  00000+0  00000+0 0  9998",
        "tle_line2": "2 43632   0.0021   0.4539 0001689 253.3292 124.5013  1.00271237 26472"
      },
      "geometry": {
        "type": "Point",
        "coordinates": [
          -137.86293469807347,
          -0.01868333054259747
        ]
      }
    },
    {
      "type": "Feature",
      "properties": {
        "norad_id": 43633,
        "name": "HORIZONS-3E",
        "group": "intelsat",
        "lat": 0.021361936310593892,
        "lon": -13.93346904220723,
        "alt_km": 35784.45649409226,
        "timestamp": "2025-12-03T06:58:42.909256+00:00",
        "meta_object_name": "HORIZONS-3E",
        "meta_object_id": "2018-074B",
        "meta_epoch": "2025-12-02T09:32:38.562720",
        "meta_mean_motion": 1.00268601,
        "meta_eccentricity": 0.00010808,
        "meta_inclination": 0.0303,
        "meta_ra_of_asc_node": 208.778,
        "meta_arg_of_pericenter": 80.6678,
        "meta_mean_anomaly": 94.2479,
        "meta_ephemeris_type": 0,
        "meta_classification_type": "U",
        "meta_norad_cat_id": 43633,
        "meta_element_set_no": 999,
        "meta_rev_at_epoch": 2636,
        "meta_bstar": 0,
        "meta_mean_motion_dot": -1e-07,
        "meta_mean_motion_ddot": 0,
        "tle_line1": "1 43633U 18074B   25336.39766855 -.00000010  00000+0  00000+0 0  9997",
        "tle_line2": "2 43633   0.0303 208.7780 0001080  80.6678  94.2479  1.00268601 26369"
      },
      "geometry": {
        "type": "Point",
        "coordinates": [
          -13.93346904220723,
          0.021361936310593892
        ]
      }
    }
  ]
}